IRIDIUM 159             
1 43578U 18061K   25083.68766500  .00000882  00000+0  30792-3 0  9990
2 43578  86.3939 244.4918 0002251  96.3267 263.8186 14.34221004348956
IRIDIUM 180             
1 43922U 19002A   25083.54762608  .00001023  00000+0  35821-3 0  9995
2 43922  86.4044 181.5078 0002181  92.6508 267.4938 14.34215239324541
IRIDIUM 176             
1 43923U 19002B   25083.82450150  .00003683  00000+0  57994-3 0  9992
2 43923  86.6170 181.3931 0002922  88.8429 271.3123 14.72253325333137
IRIDIUM 168             
1 43924U 19002C   25083.54128226  .00001048  00000+0  36706-3 0  9999
2 43924  86.4044 181.5749 0002259  95.8212 264.3241 14.34216413324527
IRIDIUM 173             
1 43925U 19002D   25083.52859650  .00000725  00000+0  25186-3 0  9991
2 43925  86.4047 181.4881 0002162  90.9907 269.1537 14.34217688324501
IRIDIUM 169             
1 43926U 19002E   25083.64383779  .00001347  00000+0  43336-3 0  9997
2 43926  86.4269 213.0067 0002709  59.0346 301.1119 14.38646549325595
IRIDIUM 172             
1 43927U 19002F   25083.52226696  .00001000  00000+0  34992-3 0  9993
2 43927  86.4047 181.4973 0002470  97.2905 262.8572 14.34224060324517
IRIDIUM 175             
1 43928U 19002G   25083.88723251  .00003020  00000+0  47473-3 0  9994
2 43928  86.1514 138.7093 0001490  79.3922 280.7462 14.72266480333132
